STARLINK-32090          
1 59691U 24086K   26068.01197643  .00000826  00000+0  39508-4 0  9997
2 59691  42.9985  67.5931 0000568 296.4773  63.6020 15.27581318103964
FLOCK 4G-3              
1 62639U 25009AG  26068.80174065  .00011494  00000+0  43389-3 0  9993
2 62639  97.4062 151.4068 0001320 293.2042  66.9058 15.27179310 63727
